ONEWEB-0520             
1 54138U 22138AB  24128.90705203 -.00000022  00000+0 -88329-4 0  9999
2 54138  87.9118  98.2645 0001879 101.9043 258.2300 13.19725254 75229
ONEWEB-0521             
1 54139U 22138AC  24129.16767466  .00000137  00000+0  30954-3 0  9993
2 54139  87.9117  98.2059 0001911  78.4328 281.7019 13.19726104 76100
ONEWEB-0522             
1 54140U 22138AD  24128.91968780 -.00000003  00000+0 -40941-4 0  9991
2 54140  87.9116  98.2573 0002082  89.5366 270.6006 13.19724891 75212
ONEWEB-0523             
1 54141U 22138AE  24129.18998700  .00000085  00000+0  17702-3 0  9993
2 54141  87.9210  67.6441 0002698  65.8968 294.2447 13.20771851 78539
ONEWEB-0524             
1 54142U 22138AF  24128.87591429 -.00000060  00000+0 -17835-3 0  9998
2 54142  87.9209  67.7104 0003172  86.4117 273.7379 13.20770943 77624
ONEWEB-0525             
1 54143U 22138AG  24129.39354543  .00000070  00000+0  14234-3 0  9990
2 54143  87.9119  98.1706 0001889  95.6741 264.4607 13.19724879 76163
ONEWEB-0526             
1 54144U 22138AH  24128.89599914 -.00000022  00000+0 -87207-4 0  9998
2 54144  87.9117  98.2658 0002087  90.1682 269.9689 13.19725036 75204
ONEWEB-0529             
1 54145U 22138AJ  24128.89915274 -.00000009  00000+0 -54679-4 0  9992
2 54145  87.9125  98.2771 0001959  97.2333 262.9023 13.19724779 75228
